[
    {
        "Altitude(m)": 559864.0573632448,
        "Argument of Periapsis(deg)": 0.006622991110713501,
        "Eccentricity": 0.0,
        "Inclination(deg)": 53.0,
        "Latitude(deg)": 52.98958620320395,
        "Longitude(deg)": -99.57552612840637,
        "Mean Anomaly(deg)": 93.72799286757758,
        "RAAN(deg)": 264.990143368528,
        "Satellite Name": "Starlink Shell 1 1171",
        "Satellite Number": 1171,
        "Semi-Major Axis(m)": 6931778.249405717,
        "Time(s)": 190
    },
    {
        "Altitude(m)": 559850.8328150046,
        "Argument of Periapsis(deg)": 0.0069715695902247375,
        "Eccentricity": 0.0,
        "Inclination(deg)": 53.0,
        "Latitude(deg)": 52.93104032205891,
        "Longitude(deg)": -98.58360754477415,
        "Mean Anomaly(deg)": 94.35482407113432,
        "RAAN(deg)": 264.9896245984506,
        "Satellite Name": "Starlink Shell 1 1171",
        "Satellite Number": 1171,
        "Semi-Major Axis(m)": 6931778.249405717,
        "Time(s)": 200
    },
    {
        "Altitude(m)": 559835.5691274803,
        "Argument of Periapsis(deg)": 0.007320148069735974,
        "Eccentricity": 0.0,
        "Inclination(deg)": 53.0,
        "Latitude(deg)": 52.86354037122033,
        "Longitude(deg)": -97.59468350371473,
        "Mean Anomaly(deg)": 94.98165527469102,
        "RAAN(deg)": 264.9891058283731,
        "Satellite Name": "Starlink Shell 1 1171",
        "Satellite Number": 1171,
        "Semi-Major Axis(m)": 6931778.249405717,
        "Time(s)": 210
    },
    {
        "Altitude(m)": 559818.2755008821,
        "Argument of Periapsis(deg)": 0.007668726549247212,
        "Eccentricity": 0.0,
        "Inclination(deg)": 53.0,
        "Latitude(deg)": 52.78713555171951,
        "Longitude(deg)": -96.60915951646754,
        "Mean Anomaly(deg)": -264.39151352175224,
        "RAAN(deg)": 264.9885870582956,
        "Satellite Name": "Starlink Shell 1 1171",
        "Satellite Number": 1171,
        "Semi-Major Axis(m)": 6931778.249405717,
        "Time(s)": 220
    },
    {
        "Altitude(m)": 559798.9623572361,
        "Argument of Periapsis(deg)": 0.00801730502875845,
        "Eccentricity": 0.0,
        "Inclination(deg)": 53.0,
        "Latitude(deg)": 52.701881128683986,
        "Longitude(deg)": -95.62743130778841,
        "Mean Anomaly(deg)": -263.7646823181955,
        "RAAN(deg)": 264.98806828821813,
        "Satellite Name": "Starlink Shell 1 1171",
        "Satellite Number": 1171,
        "Semi-Major Axis(m)": 6931778.249405717,
        "Time(s)": 230
    },
    {
        "Altitude(m)": 559777.6413352912,
        "Argument of Periapsis(deg)": 0.008365883508269684,
        "Eccentricity": 0.0,
        "Inclination(deg)": 53.0,
        "Latitude(deg)": 52.607838238969734,
        "Longitude(deg)": -94.64988330712328,
        "Mean Anomaly(deg)": -263.13785111463886,
        "RAAN(deg)": 264.98754951814067,
        "Satellite Name": "Starlink Shell 1 1171",
        "Satellite Number": 1171,
        "Semi-Major Axis(m)": 6931778.249405717,
        "Time(s)": 240
    },
    {
        "Altitude(m)": 559754.3252848526,
        "Argument of Periapsis(deg)": 0.008714461987780921,
        "Eccentricity": 0.0,
        "Inclination(deg)": 53.0,
        "Latitude(deg)": 52.50507368149022,
        "Longitude(deg)": -93.67688872596582,
        "Mean Anomaly(deg)": -262.5110199110821,
        "RAAN(deg)": 264.9870307480632,
        "Satellite Name": "Starlink Shell 1 1171",
        "Satellite Number": 1171,
        "Semi-Major Axis(m)": 6931778.249405717,
        "Time(s)": 250
    },
    {
        "Altitude(m)": 559729.0282604988,
        "Argument of Periapsis(deg)": 0.009063040467292158,
        "Eccentricity": 0.0,
        "Inclination(deg)": 53.0,
        "Latitude(deg)": 52.393659691874745,
        "Longitude(deg)": -92.70880820033719,
        "Mean Anomaly(deg)": -261.88418870752537,
        "RAAN(deg)": 264.98651197798574,
        "Satellite Name": "Starlink Shell 1 1171",
        "Satellite Number": 1171,
        "Semi-Major Axis(m)": 6931778.249405717,
        "Time(s)": 260
    },
    {
        "Altitude(m)": 559701.7655147463,
        "Argument of Periapsis(deg)": 0.009411618946803396,
        "Eccentricity": 0.0,
        "Inclination(deg)": 53.0,
        "Latitude(deg)": 52.27367370318447,
        "Longitude(deg)": -91.7459885151014,
        "Mean Anomaly(deg)": -261.2573575039687,
        "RAAN(deg)": 264.9859932079082,
        "Satellite Name": "Starlink Shell 1 1171",
        "Satellite Number": 1171,
        "Semi-Major Axis(m)": 6931778.249405717,
        "Time(s)": 270
    },
    {
        "Altitude(m)": 559672.5534905774,
        "Argument of Periapsis(deg)": 0.009760197426314633,
        "Eccentricity": 0.0,
        "Inclination(deg)": 53.0,
        "Latitude(deg)": 52.14519809438295,
        "Longitude(deg)": -90.7887629251749,
        "Mean Anomaly(deg)": -260.63052630041193,
        "RAAN(deg)": 264.98547443783076,
        "Satellite Name": "Starlink Shell 1 1171",
        "Satellite Number": 1171,
        "Semi-Major Axis(m)": 6931778.249405717,
        "Time(s)": 280
    },
    {
        "Altitude(m)": 559641.4098134392,
        "Argument of Periapsis(deg)": 0.01010877590582587,
        "Eccentricity": 0.0,
        "Inclination(deg)": 53.0,
        "Latitude(deg)": 52.00831992854597,
        "Longitude(deg)": -89.83745005122202,
        "Mean Anomaly(deg)": -260.0036950968553,
        "RAAN(deg)": 264.9849556677533,
        "Satellite Name": "Starlink Shell 1 1171",
        "Satellite Number": 1171,
        "Semi-Major Axis(m)": 6931778.249405717,
        "Time(s)": 290
    },
    {
        "Altitude(m)": 559608.353282613,
        "Argument of Periapsis(deg)": 0.010457354385337106,
        "Eccentricity": 0.0,
        "Inclination(deg)": 53.0,
        "Latitude(deg)": 51.863130682406556,
        "Longitude(deg)": -88.89235286174477,
        "Mean Anomaly(deg)": -259.37686389329855,
        "RAAN(deg)": 264.98443689767583,
        "Satellite Name": "Starlink Shell 1 1171",
        "Satellite Number": 1171,
        "Semi-Major Axis(m)": 6931778.249405717,
        "Time(s)": 300
    },
    {
        "Altitude(m)": 559573.4038620502,
        "Argument of Periapsis(deg)": 0.010805932864848343,
        "Eccentricity": 0.0,
        "Inclination(deg)": 53.0,
        "Latitude(deg)": 51.70972596921145,
        "Longitude(deg)": -87.95375925586367,
        "Mean Anomaly(deg)": -258.75003268974183,
        "RAAN(deg)": 264.9839181275983,
        "Satellite Name": "Starlink Shell 1 1171",
        "Satellite Number": 1171,
        "Semi-Major Axis(m)": 6931778.249405717,
        "Time(s)": 310
    },
    {
        "Altitude(m)": 559536.5826705963,
        "Argument of Periapsis(deg)": 0.01115451134435958,
        "Eccentricity": 0.0,
        "Inclination(deg)": 53.0,
        "Latitude(deg)": 51.54820525661364,
        "Longitude(deg)": -87.02194121972137,
        "Mean Anomaly(deg)": -258.1232014861851,
        "RAAN(deg)": 264.98339935752085,
        "Satellite Name": "Starlink Shell 1 1171",
        "Satellite Number": 1171,
        "Semi-Major Axis(m)": 6931778.249405717,
        "Time(s)": 320
    },
    {
        "Altitude(m)": 559497.9119716741,
        "Argument of Periapsis(deg)": 0.011503089823870818,
        "Eccentricity": 0.0,
        "Inclination(deg)": 53.0,
        "Latitude(deg)": 51.37867158135486,
        "Longitude(deg)": -86.09715406789462,
        "Mean Anomaly(deg)": -257.4963702826284,
        "RAAN(deg)": 264.98288058744345,
        "Satellite Name": "Starlink Shell 1 1171",
        "Satellite Number": 1171,
        "Semi-Major Axis(m)": 6931778.249405717,
        "Time(s)": 330
    },
    {
        "Altitude(m)": 559457.4151624006,
        "Argument of Periapsis(deg)": 0.011851668303382053,
        "Eccentricity": 0.0,
        "Inclination(deg)": 53.0,
        "Latitude(deg)": 51.201231262419675,
        "Longitude(deg)": -85.17963728038623,
        "Mean Anomaly(deg)": -256.8695390790716,
        "RAAN(deg)": 264.9823618173659,
        "Satellite Name": "Starlink Shell 1 1171",
        "Satellite Number": 1171,
        "Semi-Major Axis(m)": 6931778.249405717,
        "Time(s)": 340
    },
    {
        "Altitude(m)": 559415.11676212,
        "Argument of Periapsis(deg)": 0.012200246782893292,
        "Eccentricity": 0.0,
        "Inclination(deg)": 53.0,
        "Latitude(deg)": 51.01599361426744,
        "Longitude(deg)": -84.26961390652339,
        "Mean Anomaly(deg)": -256.2427078755149,
        "RAAN(deg)": 264.98184304728846,
        "Satellite Name": "Starlink Shell 1 1171",
        "Satellite Number": 1171,
        "Semi-Major Axis(m)": 6931778.249405717,
        "Time(s)": 350
    },
    {
        "Altitude(m)": 559371.0424004049,
        "Argument of Periapsis(deg)": 0.012548825262404526,
        "Eccentricity": 0.0,
        "Inclination(deg)": 53.0,
        "Latitude(deg)": 50.82307066166048,
        "Longitude(deg)": -83.36729004512307,
        "Mean Anomaly(deg)": -255.61587667195823,
        "RAAN(deg)": 264.981324277211,
        "Satellite Name": "Starlink Shell 1 1171",
        "Satellite Number": 1171,
        "Semi-Major Axis(m)": 6931778.249405717,
        "Time(s)": 360
    },
    {
        "Altitude(m)": 559325.2188045117,
        "Argument of Periapsis(deg)": 0.012897403741915765,
        "Eccentricity": 0.0,
        "Inclination(deg)": 53.0,
        "Latitude(deg)": 50.622576857509365,
        "Longitude(deg)": -82.47285590980808,
        "Mean Anomaly(deg)": -254.98904546840154,
        "RAAN(deg)": 264.9808055071335,
        "Satellite Name": "Starlink Shell 1 1171",
        "Satellite Number": 1171,
        "Semi-Major Axis(m)": 6931778.249405717,
        "Time(s)": 370
    }
]